{
  "type": "FeatureCollection",
  "features": [
    {
      "type": "Feature",
      "properties": {
        "norad_id": 31307,
        "name": "GALAXY 17 (G-17)",
        "group": "intelsat",
        "lat": 2.4741918367860305,
        "lon": 163.13904139362015,
        "alt_km": 35783.736293010836,
        "timestamp": "2025-12-15T10:55:20.797482+00:00",
        "meta_object_name": "GALAXY 17 (G-17)",
        "meta_object_id": "2007-016B",
        "meta_epoch": "2025-12-14T21:34:29.331840",
        "meta_mean_motion": 1.00272267,
        "meta_eccentricity": 0.0005675,
        "meta_inclination": 2.5056,
        "meta_ra_of_asc_node": 82.2617,
        "meta_arg_of_pericenter": 166.2186,
        "meta_mean_anomaly": 73.9758,
        "meta_ephemeris_type": 0,
        "meta_classification_type": "U",
        "meta_norad_cat_id": 31307,
        "meta_element_set_no": 999,
        "meta_rev_at_epoch": 6795,
        "meta_bstar": 0,
        "meta_mean_motion_dot": -1.88e-06,
        "meta_mean_motion_ddot": 0,
        "tle_line1": "1 31307U 07016B   25348.89895060 -.00000188  00000+0  00000+0 0  9991",
        "tle_line2": "2 31307   2.5056  82.2617 0005675 166.2186  73.9758  1.00272267 67956"
      },
      "geometry": {
        "type": "Point",
        "coordinates": [
          163.13904139362015,
          2.4741918367860305
        ]
      }
    },
    {
      "type": "Feature",
      "properties": {
        "norad_id": 31862,
        "name": "DIRECTV 10",
        "group": "intelsat",
        "lat": -0.0013095671571305891,
        "lon": 145.39050680613175,
        "alt_km": 35785.761913484705,
        "timestamp": "2025-12-15T10:55:20.797498+00:00",
        "meta_object_name": "DIRECTV 10",
        "meta_object_id": "2007-032A",
        "meta_epoch": "2025-12-14T21:29:22.322400",
        "meta_mean_motion": 1.00270231,
        "meta_eccentricity": 3.809e-05,
        "meta_inclination": 0.0158,
        "meta_ra_of_asc_node": 173.0837,
        "meta_arg_of_pericenter": 33.5452,
        "meta_mean_anomaly": 96.7341,
        "meta_ephemeris_type": 0,
        "meta_classification_type": "U",
        "meta_norad_cat_id": 31862,
        "meta_element_set_no": 999,
        "meta_rev_at_epoch": 4374,
        "meta_bstar": 0,
        "meta_mean_motion_dot": -8.3e-07,
        "meta_mean_motion_ddot": 0,
        "tle_line1": "1 31862U 07032A   25348.89539725 -.00000083  00000+0  00000+0 0  9992",
        "tle_line2": "2 31862   0.0158 173.0837 0000380  33.5452  96.7341  1.00270231 43742"
      },
      "geometry": {
        "type": "Point",
        "coordinates": [
          145.39050680613175,
          -0.0013095671571305891
        ]
      }
    },
    {
      "type": "Feature",
      "properties": {
        "norad_id": 32253,
        "name": "INTELSAT 11 (IS-11)",
        "group": "intelsat",
        "lat": 1.1214187607861423,
        "lon": 101.82693081219124,
        "alt_km": 36162.90672450908,
        "timestamp": "2025-12-15T10:55:20.797510+00:00",
        "meta_object_name": "INTELSAT 11 (IS-11)",
        "meta_object_id": "2007-044B",
        "meta_epoch": "2025-12-14T17:52:28.096032",
        "meta_mean_motion": 0.99049636,
        "meta_eccentricity": 0.00087376,
        "meta_inclination": 3.0854,
        "meta_ra_of_asc_node": 80.9547,
        "meta_arg_of_pericenter": 166.7777,
        "meta_mean_anomaly": 320.8919,
        "meta_ephemeris_type": 0,
        "meta_classification_type": "U",
        "meta_norad_cat_id": 32253,
        "meta_element_set_no": 999,
        "meta_rev_at_epoch": 6662,
        "meta_bstar": 0,
        "meta_mean_motion_dot": 6.4e-07,
        "meta_mean_motion_ddot": 0,
        "tle_line1": "1 32253U 07044B   25348.74476963  .00000064  00000+0  00000+0 0  9996",
        "tle_line2": "2 32253   3.0854  80.9547 0008737 166.7777 320.8919  0.99049636 66624"
      },
      "geometry": {
        "type": "Point",
        "coordinates": [
          101.82693081219124,
          1.1214187607861423
        ]
      }
    },
    {
      "type": "Feature",
      "properties": {
        "norad_id": 32388,
        "name": "HORIZONS-2",
        "group": "intelsat",
        "lat": 2.12176498296886,
        "lon": 174.33914469354204,
        "alt_km": 35787.95920871784,
        "timestamp": "2025-12-15T10:55:20.797521+00:00",
        "meta_object_name": "HORIZONS-2",
        "meta_object_id": "2007-063B",
        "meta_epoch": "2025-12-14T21:37:44.021280",
        "meta_mean_motion": 1.00273662,
        "meta_eccentricity": 0.00046397,
        "meta_inclination": 2.127,
        "meta_ra_of_asc_node": 82.9437,
        "meta_arg_of_pericenter": 189.2196,
        "meta_mean_anomaly": 62.2823,
        "meta_ephemeris_type": 0,
        "meta_classification_type": "U",
        "meta_norad_cat_id": 32388,
        "meta_element_set_no": 999,
        "meta_rev_at_epoch": 6596,
        "meta_bstar": 0,
        "meta_mean_motion_dot": -2.35e-06,
        "meta_mean_motion_ddot": 0,
        "tle_line1": "1 32388U 07063B   25348.90120395 -.00000235  00000+0  00000+0 0  9990",
        "tle_line2": "2 32388   2.1270  82.9437 0004639 189.2196  62.2823  1.00273662 65965"
      },
      "geometry": {
        "type": "Point",
        "coordinates": [
          174.33914469354204,
          2.12176498296886
        ]
      }
    },
    {
      "type": "Feature",
      "properties": {
        "norad_id": 32729,
        "name": "DIRECTV 11",
        "group": "intelsat",
        "lat": -0.01199207241114023,
        "lon": 148.99868759774085,
        "alt_km": 35784.11982458688,
        "timestamp": "2025-12-15T10:55:20.797533+00:00",
        "meta_object_name": "DIRECTV 11",
        "meta_object_id": "2008-013A",
        "meta_epoch": "2025-12-14T19:47:32.076384",
        "meta_mean_motion": 1.00271968,
        "meta_eccentricity": 5.052e-05,
        "meta_inclination": 0.0429,
        "meta_ra_of_asc_node": 161.019,
        "meta_arg_of_pericenter": 12.4167,
        "meta_mean_anomaly": 108.0014,
        "meta_ephemeris_type": 0,
        "meta_classification_type": "U",
        "meta_norad_cat_id": 32729,
        "meta_element_set_no": 999,
        "meta_rev_at_epoch": 4374,
        "meta_bstar": 0,
        "meta_mean_motion_dot": -1.06e-06,
        "meta_mean_motion_ddot": 0,
        "tle_line1": "1 32729U 08013A   25348.82467681 -.00000106  00000+0  00000+0 0  9995",
        "tle_line2": "2 32729   0.0429 161.0190 0000505  12.4167 108.0014  1.00271968 43745"
      },
      "geometry": {
        "type": "Point",
        "coordinates": [
          148.99868759774085,
          -0.01199207241114023
        ]
      }
    },
    {
      "type": "Feature",
      "properties": {
        "norad_id": 32951,
        "name": "GALAXY 18 (G-18)",
        "group": "intelsat",
        "lat": 0.030233802830768344,
        "lon": 125.14626298014406,
        "alt_km": 35796.18465942065,
        "timestamp": "2025-12-15T10:55:20.797545+00:00",
        "meta_object_name": "GALAXY 18 (G-18)",
        "meta_object_id": "2008-024A",
        "meta_epoch": "2025-12-14T21:23:37.872384",
        "meta_mean_motion": 1.00271157,
        "meta_eccentricity": 0.00028437,
        "meta_inclination": 0.0227,
        "meta_ra_of_asc_node": 355.7402,
        "meta_arg_of_pericenter": 275.3957,
        "meta_mean_anomaly": 10.5563,
        "meta_ephemeris_type": 0,
        "meta_classification_type": "U",
        "meta_norad_cat_id": 32951,
        "meta_element_set_no": 999,
        "meta_rev_at_epoch": 4400,
        "meta_bstar": 0,
        "meta_mean_motion_dot": 0,
        "meta_mean_motion_ddot": 0,
        "tle_line1": "1 32951U 08024A   25348.89141056  .00000000  00000+0  00000+0 0  9998",
        "tle_line2": "2 32951   0.0227 355.7402 0002843 275.3957  10.5563  1.00271157 44006"
      },
      "geometry": {
        "type": "Point",
        "coordinates": [
          125.14626298014406,
          0.030233802830768344
        ]
      }
    },
    {
      "type": "Feature",
      "properties": {
        "norad_id": 33153,
        "name": "INTELSAT 25 (IS-25)",
        "group": "intelsat",
        "lat": 1.5869159343168864,
        "lon": -143.32496422987427,
        "alt_km": 35772.04432753762,
        "timestamp": "2025-12-15T10:55:20.797557+00:00",
        "meta_object_name": "INTELSAT 25 (IS-25)",
        "meta_object_id": "2008-034A",
        "meta_epoch": "2025-12-14T21:49:42.872736",
        "meta_mean_motion": 1.00271515,
        "meta_eccentricity": 0.00049056,
        "meta_inclination": 2.2332,
        "meta_ra_of_asc_node": 82.6266,
        "meta_arg_of_pericenter": 181.9109,
        "meta_mean_anomaly": 115.2196,
        "meta_ephemeris_type": 0,
        "meta_classification_type": "U",
        "meta_norad_cat_id": 33153,
        "meta_element_set_no": 999,
        "meta_rev_at_epoch": 6384,
        "meta_bstar": 0,
        "meta_mean_motion_dot": -2.05e-06,
        "meta_mean_motion_ddot": 0,
        "tle_line1": "1 33153U 08034A   25348.90952399 -.00000205  00000+0  00000+0 0  9994",
        "tle_line2": "2 33153   2.2332  82.6266 0004905 181.9109 115.2196  1.00271515 63844"
      },
      "geometry": {
        "type": "Point",
        "coordinates": [
          -143.32496422987427,
          1.5869159343168864
        ]
      }
    }
  ]
}